     2.11           N: GPS NAV DATA                         RINEX VERSION / TYPE
teqc  2019Feb25     CORS-ADM Account    20260514 06:45:01UTCPGM / RUN BY / DATE
Linux 2.4.21-27.ELsmp|Opteron|gcc|Linux 64|=+               COMMENT
     2.10           N: GPS NAV DATA                         COMMENT
rvacn.e(1404.07)                        2026-05-14T06:27 UTCCOMMENT
This file contains the validated broadcast navigation       COMMENT
messages from the following files:                          COMMENT
aaaa1340.26n, abmf134f.26n, abpo134f.26n, albh134f.26n,     COMMENT
alic134f.26n, areq134f.26n, baie134f.26n, brew134f.26n,     COMMENT
brst134f.26n, brux134f.26n, bshm134f.26n, bucu134f.26n,     COMMENT
cebr134f.26n, chpi134f.26n, chum134f.26n, chur134f.26n,     COMMENT
ckis134f.26n, coco134f.26n, cro1134f.26n, darw134f.26n,     COMMENT
dav1134f.26n, dgar134f.26n, djig134f.26n, dlf1134f.26n,     COMMENT
drao134f.26n, dubo134f.26n, ebre134f.26n, fair134f.26n,     COMMENT
falk134f.26n, flin134f.26n, glps134f.26n, gode134f.26n,     COMMENT
guam134f.26n, harb134f.26n, hers134f.26n, hlfx134f.26n,     COMMENT
hob2134f.26n, hofn134f.26n, holb134f.26n, hrao134f.26n,     COMMENT
iisc134f.26n, iqal134f.26n, ista134f.26n, joze134f.26n,     COMMENT
jplm134f.26n, karr134f.26n, kat1134f.26n, kiri134f.26n,     COMMENT
kiru134f.26n, kokb134f.26n, koug134f.26n, kour134f.26n,     COMMENT
lmmf134f.26n, lpal134f.26n, m0se134f.26n, mac1134f.26n,     COMMENT
maju134f.26n, mal2134f.26n, mar6134f.26n, mas1134f.26n,     COMMENT
mat1134f.26n, mate134f.26n, maw1134f.26n, mcm4134f.26n,     COMMENT
mdo1134f.26n, medi134f.26n, met3134f.26n, mkea134f.26n,     COMMENT
mobs134f.26n, mro1134f.26n, nain134f.26n, nano134f.26n,     COMMENT
naur134f.26n, nico134f.26n, nklg134f.26n, nlib134f.26n,     COMMENT
nnor134f.26n, not1134f.26n, nrc1134f.26n, onsa134f.26n,     COMMENT
orid134f.26n, palm134f.26n, pert134f.26n, picl134f.26n,     COMMENT
pie1134f.26n, pimo134f.26n, pohn134f.26n, prds134f.26n,     COMMENT
ptvl134f.26n, qaq1134f.26n, qiki134f.26n, reso134f.26n,     COMMENT
reun134f.26n, reyk134f.26n, riga134f.26n, sant134f.26n,     COMMENT
sask134f.26n, sch2134f.26n, scor134f.26n, seyg134f.26n,     COMMENT
solo134f.26n, stj3134f.26n, stjo134f.26n, stpm134f.26n,     COMMENT
suth134f.26n, suwn134f.26n, sydn134f.26n, thtg134f.26n,     COMMENT
thu2134f.26n, tid1134f.26n, tow2134f.26n, tuva134f.26n,     COMMENT
unbj134f.26n, vacs134f.26n, vald134f.26n, vill134f.26n,     COMMENT
vis0134f.26n, warn134f.26n, whit134f.26n, will134f.26n,     COMMENT
wsrt134f.26n, wtzr134f.26n, xmis134f.26n, yar2134f.26n,     COMMENT
yarr134f.26n, yebe134f.26n, yell134f.26n, zim2134f.26n,     COMMENT
zimm134f.26n                                                COMMENT
    1.4900D-08  2.2350D-08 -1.1920D-07 -1.1920D-07          ION ALPHA
    1.0850D+05  1.3110D+05 -1.3110D+05 -3.9320D+05          ION BETA
    3.725290298460D-09 1.154631945610D-14   503808     2418 DELTA-UTC: A0,A1,T,W
                                                            END OF HEADER
27 26  5 14  2  0  0.0-5.043111741543D-07-1.716671249596D-11 0.000000000000D+00
    2.600000000000D+01 7.515625000000D+01 4.768055751518D-09 2.928640246262D+00
    3.762543201447D-06 1.433948765043D-02 2.358108758926D-06 5.153672178268D+03
    3.528000000000D+05 8.940696716309D-08 7.436321301888D-01-1.434236764908D-07
    9.518876459184D-01 3.277500000000D+02 8.988121807122D-01-8.290702483894D-09
    2.267951612145D-10 1.000000000000D+00 2.418000000000D+03 0.000000000000D+00
    2.000000000000D+00 6.300000000000D+01 2.328306436539D-09 2.600000000000D+01
    3.456240000000D+05 4.000000000000D+00
28 26  5 14  2  0  0.0-5.302224308252D-04 1.057287590811D-11 0.000000000000D+00
    1.650000000000D+02-4.671875000000D+01 4.745554814263D-09 7.924073301459D-01
   -2.520158886909D-06 4.527352284640D-04 7.653608918190D-06 5.153582258224D+03
    3.528000000000D+05-7.078051567078D-08-1.359196940214D+00 1.862645149231D-08
    9.615197253046D-01 2.299375000000D+02-4.322609245340D-01-8.154982544899D-09
   -6.203829842986D-10 1.000000000000D+00 2.418000000000D+03 0.000000000000D+00
    2.000000000000D+00 0.000000000000D+00-9.313225746155D-09 4.210000000000D+02
    3.456180000000D+05 4.000000000000D+00
29 26  5 14  2  0  0.0-3.218124620616D-04 7.389644451905D-12 0.000000000000D+00
    4.100000000000D+01 6.831250000000D+01 4.705910305768D-09 2.725317454765D+00
    3.539025783539D-06 3.586540929973D-03 2.605840563774D-06 5.153721929550D+03
    3.528000000000D+05-1.303851604462D-08 8.337167588266D-01 5.215406417847D-08
    9.610312174591D-01 3.307500000000D+02 2.787960859178D+00-8.419636425938D-09
    1.510777215649D-10 1.000000000000D+00 2.418000000000D+03 0.000000000000D+00
    2.000000000000D+00 0.000000000000D+00-9.778887033463D-09 4.100000000000D+01
    3.456180000000D+05 4.000000000000D+00
30 26  5 14  2  0  0.0 2.216668799520D-04 1.364242052659D-11 0.000000000000D+00
    2.300000000000D+01-4.931250000000D+01 5.450584181566D-09-2.304576148447D-01
   -2.596527338028D-06 8.242511656135D-03 7.828697562218D-06 5.153716321945D+03
    3.528000000000D+05 0.000000000000D+00-1.344316352561D+00 5.960464477539D-08
    9.358867541370D-01 2.120937500000D+02-2.275215051977D+00-8.643931483014D-09
   -6.521700226420D-10 1.000000000000D+00 2.418000000000D+03 0.000000000000D+00
    2.000000000000D+00 0.000000000000D+00 4.190951585770D-09 2.300000000000D+01
    3.456180000000D+05 4.000000000000D+00
31 26  5 14  2  0  0.0-1.492947340012D-04 2.387423592154D-12 0.000000000000D+00
    1.000000000000D+01-4.203125000000D+01 4.908061583323D-09-1.053336336304D+00
   -2.099201083183D-06 1.080890477169D-02 8.134171366692D-06 5.153599138260D+03
    3.528000000000D+05 1.154839992523D-07-1.309712981317D+00 2.682209014893D-07
    9.543556135877D-01 2.184375000000D+02 9.517566372156D-01-8.243557662980D-09
   -6.103825677411D-10 1.000000000000D+00 2.418000000000D+03 0.000000000000D+00
    2.000000000000D+00 0.000000000000D+00-1.350417733192D-08 1.000000000000D+01
    3.456180000000D+05 4.000000000000D+00
32 26  5 14  2  0  0.0 5.272123962641D-05 2.034994395217D-11 0.000000000000D+00
    9.200000000000D+01 2.915625000000D+01 4.839487298357D-09-2.824090529426D+00
    1.551583409309D-06 9.386303601786D-03 5.546957254410D-06 5.153755498886D+03
    3.528000000000D+05 2.533197402954D-07-2.390115279952D+00-8.940696716309D-08
    9.685975380210D-01 2.745937500000D+02-1.976908645426D+00-8.148196547949D-09
    4.032310819074D-10 1.000000000000D+00 2.418000000000D+03 0.000000000000D+00
    2.000000000000D+00 0.000000000000D+00 9.313225746155D-10 9.200000000000D+01
    3.456250000000D+05 4.000000000000D+00
 1 26  5 14  2 29 36.0 2.752654254436D-04-9.549694368616D-12 0.000000000000D+00
    5.300000000000D+01-1.029375000000D+02 4.583762360673D-09 1.872307964913D+00
   -5.465000867844D-06 1.739779836498D-03 6.414949893951D-06 5.153613664627D+03
    3.545760000000D+05 1.490116119385D-08 1.882148141471D+00 6.519258022308D-08
    9.572597224869D-01 2.515625000000D+02 1.889666570483D-01-8.306417424198D-09
   -3.200133298397D-10 1.000000000000D+00 2.418000000000D+03 0.000000000000D+00
    2.000000000000D+00 0.000000000000D+00-8.847564458847D-09 8.210000000000D+02
    3.474260000000D+05 4.000000000000D+00
13 26  5 14  2 29 36.0 2.981605939567D-04 2.648903318914D-11 0.000000000000D+00
    1.180000000000D+02 6.228125000000D+01 4.300893435189D-09 2.743614087797D+00
    3.248453140259D-06 2.283315407112D-04 1.225434243679D-05 5.153621891022D+03
    3.545760000000D+05 1.862645149231D-08-3.245906366629D-01-1.862645149231D-09
    9.596966016842D-01 1.400937500000D+02-1.576163689841D+00-7.883542666910D-09
   -1.517920370333D-10 1.000000000000D+00 2.418000000000D+03 0.000000000000D+00
    2.000000000000D+00 6.300000000000D+01-8.381903171539D-09 1.180000000000D+02
    3.474180000000D+05 4.000000000000D+00
 6 26  5 14  3 59 44.0-6.035752594471D-04 3.637978807092D-12 0.000000000000D+00
    7.000000000000D+00-1.061562500000D+02 3.869446892280D-09 1.890569448412D+00
   -5.373731255531D-06 3.732984070666D-03 6.463378667831D-06 5.153680402756D+03
    3.599840000000D+05 1.117587089539D-08 1.834637268463D+00 6.891787052155D-08
    9.860395372360D-01 2.671250000000D+02-5.279455377479D-01-7.933901907432D-09
   -4.071598169835D-10 1.000000000000D+00 2.418000000000D+03 0.000000000000D+00
    2.000000000000D+00 0.000000000000D+00 3.725290298462D-09 7.000000000000D+00
    3.528180000000D+05 4.000000000000D+00
17 26  5 14  3 59 44.0-1.345197670162D-04-8.185452315956D-12 0.000000000000D+00
    8.000000000000D+00 6.512500000000D+01 4.790913846506D-09-2.443102693582D+00
    3.485009074211D-06 1.257966842968D-02 2.238899469376D-06 5.153634044647D+03
    3.599840000000D+05 1.154839992523D-07 8.167289342327D-01 1.434236764908D-07
    9.583756481011D-01 3.376875000000D+02-1.110726523315D+00-8.373920235961D-09
    1.003613233091D-10 1.000000000000D+00 2.418000000000D+03 0.000000000000D+00
    2.000000000000D+00 0.000000000000D+00-1.071020960808D-08 8.000000000000D+00
    3.530020000000D+05 4.000000000000D+00
32 26  5 14  3 59 44.0 5.286699160933D-05 2.034994395217D-11 0.000000000000D+00
    4.000000000000D+00 2.925000000000D+01 4.775556063936D-09-1.776278827177D+00
    1.674517989159D-06 9.385946323164D-03 5.692243576050D-06 5.153756105423D+03
    3.599840000000D+05 1.154839992523D-07-2.390174374528D+00 8.754432201385D-08
    9.686012713880D-01 2.709062500000D+02-1.976920961733D+00-8.104623304378D-09
    5.518086993329D-10 1.000000000000D+00 2.418000000000D+03 0.000000000000D+00
    2.000000000000D+00 0.000000000000D+00 9.313225746155D-10 4.000000000000D+00
    3.552480000000D+05 4.000000000000D+00
